[{"OBJECT_NAME":"STARLINK-35504","OBJECT_ID":"2025-253G","EPOCH":"2026-03-09T17:06:13.040352","MEAN_MOTION":15.27623063,"ECCENTRICITY":9.282e-5,"INCLINATION":43.0012,"RA_OF_ASC_NODE":212.755,"ARG_OF_PERICENTER":285.3928,"MEAN_ANOMALY":74.6821,"EPHEMERIS_TYPE":0,"CLASSIFICATION_TYPE":"U","NORAD_CAT_ID":66325,"ELEMENT_SET_NO":999,"REV_AT_EPOCH":2024,"BSTAR":0.0013791978,"MEAN_MOTION_DOT":0.00037936,"MEAN_MOTION_DDOT":0},{"OBJECT_NAME":"ELECTRON KICK STAGE R\/B","OBJECT_ID":"2024-047B","EPOCH":"2026-03-09T21:11:54.433824","MEAN_MOTION":15.27307897,"ECCENTRICITY":0.00092426,"INCLINATION":97.6338,"RA_OF_ASC_NODE":46.9382,"ARG_OF_PERICENTER":20.6031,"MEAN_ANOMALY":339.5579,"EPHEMERIS_TYPE":0,"CLASSIFICATION_TYPE":"U","NORAD_CAT_ID":59225,"ELEMENT_SET_NO":999,"REV_AT_EPOCH":10999,"BSTAR":0.00091229405,"MEAN_MOTION_DOT":0.00024409,"MEAN_MOTION_DDOT":0}]
